[{"OBJECT_NAME":"NUSAT-35 (WILLIAMINA)","OBJECT_ID":"2023-001AR","EPOCH":"2026-03-09T22:28:40.425600","MEAN_MOTION":15.3245616,"ECCENTRICITY":0.00136635,"INCLINATION":97.1993,"RA_OF_ASC_NODE":124.278,"ARG_OF_PERICENTER":97.0313,"MEAN_ANOMALY":263.2484,"EPHEMERIS_TYPE":0,"CLASSIFICATION_TYPE":"U","NORAD_CAT_ID":55048,"ELEMENT_SET_NO":999,"REV_AT_EPOCH":17719,"BSTAR":0.00053479647,"MEAN_MOTION_DOT":0.0001675,"MEAN_MOTION_DDOT":0},{"OBJECT_NAME":"STARLINK-30085","OBJECT_ID":"2023-067X","EPOCH":"2026-03-09T19:43:42.532320","MEAN_MOTION":15.27572641,"ECCENTRICITY":0.00017635,"INCLINATION":43.0009,"RA_OF_ASC_NODE":270.021,"ARG_OF_PERICENTER":261.6576,"MEAN_ANOMALY":98.4075,"EPHEMERIS_TYPE":0,"CLASSIFICATION_TYPE":"U","NORAD_CAT_ID":56709,"ELEMENT_SET_NO":999,"REV_AT_EPOCH":15546,"BSTAR":4.9686794e-5,"MEAN_MOTION_DOT":1.105e-5,"MEAN_MOTION_DDOT":0}]
